ONEWEB-0558             
1 56059U 23043P   25360.47761703  .00000083  00000+0  16882-3 0  9996
2 56059  87.9223 278.4327 0001490  58.4389 301.6890 13.21825010135427
ONEWEB-0559             
1 56060U 23043Q   25360.54178387 -.00000041  00000+0 -12982-3 0  9999
2 56060  87.9223 278.4133 0001836  66.9662 293.1666 13.21825618135448
ONEWEB-0566             
1 56061U 23043R   25360.53520453 -.00000054  00000+0 -16249-3 0  9998
2 56061  87.9224 278.4131 0001679  62.5498 297.5806 13.21826234135429
ONEWEB-0568             
1 56062U 23043S   25360.49782922  .00000124  00000+0  29128-3 0  9991
2 56062  87.9049 263.1549 0001485  84.4617 275.6683 13.16592513136256
ONEWEB-0574             
1 56063U 23043T   25360.30153497  .00000086  00000+0  17750-3 0  9996
2 56063  87.9225 278.4470 0001868  78.5596 281.5748 13.21827010135436
ONEWEB-0575             
1 56064U 23043U   25360.26350389  .00000123  00000+0  28898-3 0  9998
2 56064  87.9043 263.2013 0001878  85.7890 274.3456 13.16593129136216
ONEWEB-0576             
1 56065U 23043V   25360.47250428  .00000057  00000+0  11464-3 0  9992
2 56065  87.9048 263.1608 0001718  80.8417 279.2908 13.16592552136232
ONEWEB-0577             
1 56066U 23043W   25360.47883147  .00000090  00000+0  20051-3 0  9992
2 56066  87.9049 263.1589 0002283  87.1664 272.9728 13.16592423136264
